{
  "type": "FeatureCollection",
  "replace_existing": true,
  "features": [
    {"type":"Feature","geometry":{"type":"Point","coordinates":[86.6000,26.1200]},"properties":{"node_id":"RAMPUR","label":"Rampur","node_type":"settlement","district":"Supaul","data_mode":"simulation","source_note":"Synthetic demo geometry; not official road data."}},
    {"type":"Feature","geometry":{"type":"Point","coordinates":[86.6050,26.1250]},"properties":{"node_id":"B12","label":"Bridge B12","node_type":"bridge","district":"Supaul","data_mode":"simulation","source_note":"Synthetic demo geometry; not official road data."}},
    {"type":"Feature","geometry":{"type":"Point","coordinates":[86.6100,26.1150]},"properties":{"node_id":"J3","label":"Junction J3","node_type":"junction","district":"Supaul","data_mode":"simulation","source_note":"Synthetic demo geometry; not official road data."}},
    {"type":"Feature","geometry":{"type":"Point","coordinates":[86.5950,26.1100]},"properties":{"node_id":"BASANTPUR","label":"Basantpur","node_type":"settlement","district":"Supaul","data_mode":"simulation","source_note":"Synthetic demo geometry; not official road data."}},
    {"type":"Feature","geometry":{"type":"Point","coordinates":[86.6150,26.1050]},"properties":{"node_id":"SONAPUR","label":"Sonapur","node_type":"settlement","district":"Supaul","data_mode":"simulation","source_note":"Synthetic demo geometry; not official road data."}},
    {"type":"Feature","geometry":{"type":"Point","coordinates":[86.6200,26.1300]},"properties":{"node_id":"SHELTER_A","label":"Shelter A","node_type":"shelter","capacity_total":50,"capacity_remaining":50,"occupied":0,"district":"Supaul","data_mode":"simulation","source_note":"Synthetic demo capacity; not an official shelter registry."}},
    {"type":"Feature","geometry":{"type":"Point","coordinates":[86.6000,26.0950]},"properties":{"node_id":"SHELTER_B","label":"Shelter B","node_type":"shelter","capacity_total":120,"capacity_remaining":120,"occupied":0,"district":"Supaul","data_mode":"simulation","source_note":"Synthetic demo capacity; not an official shelter registry."}},
    {"type":"Feature","geometry":{"type":"Point","coordinates":[86.6250,26.1000]},"properties":{"node_id":"H1","label":"Hospital H1","node_type":"hospital","district":"Supaul","data_mode":"simulation","source_note":"Synthetic demo geometry; not official road data."}},
    {"type":"Feature","geometry":{"type":"LineString","coordinates":[[86.6000,26.1200],[86.6050,26.1250]]},"properties":{"edge_id":"B12","source_node_id":"RAMPUR","target_node_id":"B12","travel_minutes":4,"distance_meters":620,"base_risk":0.10,"failure_horizon_minutes":82,"bidirectional":true,"data_mode":"simulation"}},
    {"type":"Feature","geometry":{"type":"LineString","coordinates":[[86.6050,26.1250],[86.6200,26.1300]]},"properties":{"edge_id":"R11","source_node_id":"B12","target_node_id":"SHELTER_A","travel_minutes":5,"distance_meters":780,"base_risk":0.08,"failure_horizon_minutes":80,"bidirectional":true,"data_mode":"simulation"}},
    {"type":"Feature","geometry":{"type":"LineString","coordinates":[[86.6000,26.1200],[86.6100,26.1150]]},"properties":{"edge_id":"R12","source_node_id":"RAMPUR","target_node_id":"J3","travel_minutes":6,"distance_meters":900,"base_risk":0.12,"failure_horizon_minutes":60,"bidirectional":true,"data_mode":"simulation"}},
    {"type":"Feature","geometry":{"type":"LineString","coordinates":[[86.6100,26.1150],[86.6000,26.0950]]},"properties":{"edge_id":"R13","source_node_id":"J3","target_node_id":"SHELTER_B","travel_minutes":8,"distance_meters":1200,"base_risk":0.10,"failure_horizon_minutes":65,"bidirectional":true,"data_mode":"simulation"}},
    {"type":"Feature","geometry":{"type":"LineString","coordinates":[[86.5950,26.1100],[86.6100,26.1150]]},"properties":{"edge_id":"R21","source_node_id":"BASANTPUR","target_node_id":"J3","travel_minutes":8,"distance_meters":1300,"base_risk":0.15,"failure_horizon_minutes":55,"bidirectional":true,"data_mode":"simulation"}},
    {"type":"Feature","geometry":{"type":"LineString","coordinates":[[86.6150,26.1050],[86.6100,26.1150]]},"properties":{"edge_id":"R31","source_node_id":"SONAPUR","target_node_id":"J3","travel_minutes":4,"distance_meters":650,"base_risk":0.18,"failure_horizon_minutes":50,"bidirectional":true,"data_mode":"simulation"}},
    {"type":"Feature","geometry":{"type":"LineString","coordinates":[[86.6100,26.1150],[86.6200,26.1300]]},"properties":{"edge_id":"R33","source_node_id":"J3","target_node_id":"SHELTER_A","travel_minutes":11,"distance_meters":1700,"base_risk":0.32,"failure_horizon_minutes":59,"bidirectional":true,"data_mode":"simulation"}},
    {"type":"Feature","geometry":{"type":"LineString","coordinates":[[86.6100,26.1150],[86.6250,26.1000]]},"properties":{"edge_id":"R14","source_node_id":"J3","target_node_id":"H1","travel_minutes":6,"distance_meters":950,"base_risk":0.10,"failure_horizon_minutes":67,"bidirectional":true,"data_mode":"simulation"}}
  ]
}
